{
    "links": {
        "self": "http://www.neowsapp.com/rest/v1/neo/3137735?api_key=iIulBulltgU6a56xZRHN4H3l9WmuAYTsLGpBGhQ2"
    },
    "id": "3137735",
    "neo_reference_id": "3137735",
    "name": "(2002 TX59)",
    "designation": "2002 TX59",
    "nasa_jpl_url": "http://ssd.jpl.nasa.gov/sbdb.cgi?sstr=3137735",
    "absolute_magnitude_h": 24.2,
    "estimated_diameter": {
        "kilometers": {
            "estimated_diameter_min": 0.0384197891,
            "estimated_diameter_max": 0.0859092601
        },
        "meters": {
            "estimated_diameter_min": 38.4197891064,
            "estimated_diameter_max": 85.9092601232
        },
        "miles": {
            "estimated_diameter_min": 0.0238729428,
            "estimated_diameter_max": 0.0533815229
        },
        "feet": {
            "estimated_diameter_min": 126.0491808919,
            "estimated_diameter_max": 281.8545369825
        }
    },
    "is_potentially_hazardous_asteroid": false,
    "close_approach_data": [
        {
            "close_approach_date": "2002-06-01",
            "close_approach_date_full": "2002-Jun-01 22:31",
            "epoch_date_close_approach": 1022970660000,
            "relative_velocity": {
                "kilometers_per_second": "5.2671272891",
                "kilometers_per_hour": "18961.6582408029",
                "miles_per_hour": "11782.0370330145"
            },
            "miss_distance": {
                "astronomical": "0.2503261199",
                "lunar": "97.3768606411",
                "kilometers": "37448254.342404613",
                "miles": "23269266.2381571394"
            },
            "orbiting_body": "Earth"
        },
        {
            "close_approach_date": "2002-09-23",
            "close_approach_date_full": "2002-Sep-23 18:36",
            "epoch_date_close_approach": 1032806160000,
            "relative_velocity": {
                "kilometers_per_second": "7.5050522894",
                "kilometers_per_hour": "27018.1882417439",
                "miles_per_hour": "16788.0514660992"
            },
            "miss_distance": {
                "astronomical": "0.0806989327",
                "lunar": "31.3918848203",
                "kilometers": "12072388.443193349",
                "miles": "7501434.3324682562"
            },
            "orbiting_body": "Earth"
        }
    ],
    "orbital_data": {
        "orbit_id": "7",
        "orbit_determination_date": "2017-04-06 09:14:47",
        "first_observation_date": "2002-10-03",
        "last_observation_date": "2002-10-10",
        "data_arc_in_days": 7,
        "observations_used": 13,
        "orbit_uncertainty": "8",
        "minimum_orbit_intersection": ".0798622",
        "jupiter_tisserand_invariant": "5.186",
        "epoch_osculation": "2452553.5",
        "eccentricity": ".1461617267983222",
        "semi_major_axis": "1.223943512192686",
        "inclination": "13.0007391877131",
        "ascending_node_longitude": "188.6157063077992",
        "orbital_period": "494.5844852531725",
        "perihelion_distance": "1.045049814947",
        "perihelion_argument": "132.6090796076537",
        "aphelion_distance": "1.402837209438373",
        "perihelion_time": "2452501.494480104355",
        "mean_anomaly": "37.85397180999039",
        "mean_motion": ".7278837301491976",
        "equinox": "J2000",
        "orbit_class": {
            "orbit_class_type": "AMO",
            "orbit_class_description": "Near-Earth asteroid orbits similar to that of 1221 Amor",
            "orbit_class_range": "1.017 AU < q (perihelion) < 1.3 AU"
        }
    },
    "is_sentry_object": false
}